[{"OBJECT_NAME":"STARLINK-5473","OBJECT_ID":"2023-021AM","EPOCH":"2026-03-09T16:20:51.896544","MEAN_MOTION":14.98332272,"ECCENTRICITY":0.00032059,"INCLINATION":70.0014,"RA_OF_ASC_NODE":164.464,"ARG_OF_PERICENTER":269.2731,"MEAN_ANOMALY":90.8061,"EPHEMERIS_TYPE":0,"CLASSIFICATION_TYPE":"U","NORAD_CAT_ID":55663,"ELEMENT_SET_NO":999,"REV_AT_EPOCH":16927,"BSTAR":-1.0487234e-5,"MEAN_MOTION_DOT":-2.18e-6,"MEAN_MOTION_DDOT":0},{"OBJECT_NAME":"COSMOS 886 DEB","OBJECT_ID":"1976-126AT","EPOCH":"2026-03-09T05:32:42.363168","MEAN_MOTION":13.1374377,"ECCENTRICITY":0.08528794,"INCLINATION":65.8454,"RA_OF_ASC_NODE":292.5089,"ARG_OF_PERICENTER":245.1047,"MEAN_ANOMALY":105.9046,"EPHEMERIS_TYPE":0,"CLASSIFICATION_TYPE":"U","NORAD_CAT_ID":9953,"ELEMENT_SET_NO":999,"REV_AT_EPOCH":31523,"BSTAR":0.00070425053,"MEAN_MOTION_DOT":1.673e-5,"MEAN_MOTION_DDOT":0}]
